FLOCK 4BE-27            
1 60513U 24149AX  26063.13808203  .00015393  00000+0  49340-3 0  9990
2 60513  97.3880 145.0729 0003005 334.1917  25.9175 15.32442235 86044
FLOCK 4BE-9             
1 60514U 24149AY  26063.15962413  .00024403  00000+0  66748-3 0  9990
2 60514  97.3843 146.6604 0001707 329.6271  30.4874 15.37355049 86163
FLOCK 4BE-6             
1 60516U 24149BA  26062.78906331  .00020884  00000+0  58990-3 0  9996
2 60516  97.3846 145.8218 0002354 320.7118  39.3955 15.36383035 86074
FLOCK 4BE-14            
1 60517U 24149BB  26062.79170698  .00022804  00000+0  62259-3 0  9994
2 60517  97.3759 145.8943 0003239 316.4246  43.6742 15.37422220 86118
FLOCK 4BE-1             
1 60518U 24149BC  26063.16836538  .00029354  00000+0  76768-3 0  9996
2 60518  97.3831 147.2007 0003127 310.6203  49.4770 15.38702415 86205
FLOCK 4BE-28            
1 60519U 24149BD  26063.20188903  .00034545  00000+0  84519-3 0  9999
2 60519  97.3794 147.6540 0003546 310.6024  49.4913 15.40705131 86251
FLOCK 4BE-35            
1 60558U 24149CU  26063.19641046  .00127683  00000+0  29060-2 0  9997
2 60558  97.3803 146.3689 0004560 276.1991  83.8737 15.42467708 86153
FLOCK 4BE-5             
1 60559U 24149CV  26063.19278885  .00030936  00000+0  86165-3 0  9999
2 60559  97.3891 146.4292 0002566 319.4355  40.6698 15.36740494 86135
FLOCK 4BE-12            
1 60560U 24149CW  26063.16405565  .00145703  00000+0  30038-2 0  9991
2 60560  97.3773 147.0408 0005687 280.1802  79.8805 15.45332091 86213
FLOCK 4BE-3             
1 60561U 24149CX  26063.19969554  .00027374  00000+0  73385-3 0  9994
2 60561  97.3754 146.3600 0003164 306.0858  54.0093 15.37951480 86186
FLOCK 4BE-19            
1 60563U 24149CZ  26063.08409270  .00030064  00000+0  75240-3 0  9990
2 60563  97.3793 147.3276 0003174 311.7964  48.3010 15.40045742 86222
PELICAN-2               
1 62631U 25009Y   26063.13908969  .00075475  00000+0  18581-2 0  9998
2 62631  97.4022 153.3775 0005965 222.5832 137.4952 15.40304205 63389
PELICAN-3               
1 65315U 25188A   26062.82963603  .00004447  00000+0  11107-3 0  9998
2 65315  97.2232 140.4430 0003233 204.9810 155.1281 15.40671816 29090
PELICAN-4               
1 65316U 25188B   26062.65041579  .00012803  00000+0  31636-3 0  9993
2 65316  97.2308 140.3551 0006007 111.7293 248.4594 15.40597242 29060
